{"type": "FeatureCollection", "features": [ {"type": "Feature", "properties": {"norad_id": 40697, "name": "SENTINEL-2A", "group": "resource", "lat": 61.30313485153197, "lon": 41.475688339379, "alt_km": 782.2792755291102, "timestamp": "2025-12-10T21:43:21.743738+00:00", "meta": {"OBJECT_NAME": "SENTINEL-2A", "OBJECT_ID": "2015-028A", "EPOCH": "2025-12-10T14:43:06.236832", "MEAN_MOTION": 14.3082699, "ECCENTRICITY": 0.00010781, "INCLINATION": 98.5689, "RA_OF_ASC_NODE": 57.1761, "ARG_OF_PERICENTER": 88.7171, "MEAN_ANOMALY": 271.4135, "EPHEMERIS_TYPE": 0, "CLASSIFICATION_TYPE": "U", "NORAD_CAT_ID": 40697, "ELEMENT_SET_NO": 999, "REV_AT_EPOCH": 54676, "BSTAR": 0.00021302639, "MEAN_MOTION_DOT": 5.15e-06, "MEAN_MOTION_DDOT": 0}, "tle": {"line1": "1 40697U 15028A   25344.61326663  .00000515  00000+0  21303-3 0  9995", "line2": "2 40697  98.5689  57.1761 0001078  88.7171 271.4135 14.30826990546761"}}, "geometry": {"type": "Point", "coordinates": [41.475688339379, 61.30313485153197]}}, {"type": "Feature", "properties": {"norad_id": 40701, "name": "GAOFEN-8", "group": "resource", "lat": 59.866567296228645, "lon": -3.580197728580398, "alt_km": 437.7391825962077, "timestamp": "2025-12-10T21:43:21.743749+00:00", "meta": {"OBJECT_NAME": "GAOFEN-8", "OBJECT_ID": "2015-030A", "EPOCH": "2025-12-10T14:57:45.170208", "MEAN_MOTION": 15.38445016, "ECCENTRICITY": 0.0011532, "INCLINATION": 97.6914, "RA_OF_ASC_NODE": 162.6608, "ARG_OF_PERICENTER": 145.1681, "MEAN_ANOMALY": 215.0321, "EPHEMERIS_TYPE": 0, "CLASSIFICATION_TYPE": "U", "NORAD_CAT_ID": 40701, "ELEMENT_SET_NO": 999, "REV_AT_EPOCH": 58238, "BSTAR": 0.00091102596, "MEAN_MOTION_DOT": 0.00034652, "MEAN_MOTION_DDOT": 0}, "tle": {"line1": "1 40701U 15030A   25344.62343947  .00034652  00000+0  91103-3 0  9993", "line2": "2 40701  97.6914 162.6608 0011532 145.1681 215.0321 15.38445016582384"}}, "geometry": {"type": "Point", "coordinates": [-3.580197728580398, 59.866567296228645]}}, {"type": "Feature", "properties": {"norad_id": 40718, "name": "CARBONITE 1 (CBNT-1)", "group": "resource", "lat": 57.37202761622969, "lon": 153.92710301437984, "alt_km": 621.531859882658, "timestamp": "2025-12-10T21:43:21.743759+00:00", "meta": {"OBJECT_NAME": "CARBONITE 1 (CBNT-1)", "OBJECT_ID": "2015-032D", "EPOCH": "2025-12-10T14:58:55.233696", "MEAN_MOTION": 14.82726328, "ECCENTRICITY": 0.00142344, "INCLINATION": 97.6404, "RA_OF_ASC_NODE": 165.762, "ARG_OF_PERICENTER": 188.4403, "MEAN_ANOMALY": 171.6574, "EPHEMERIS_TYPE": 0, "CLASSIFICATION_TYPE": "U", "NORAD_CAT_ID": 40718, "ELEMENT_SET_NO": 999, "REV_AT_EPOCH": 56139, "BSTAR": 0.00025854004, "MEAN_MOTION_DOT": 2.04e-05, "MEAN_MOTION_DDOT": 0}, "tle": {"line1": "1 40718U 15032D   25344.62425039  .00002040  00000+0  25854-3 0  9992", "line2": "2 40718  97.6404 165.7620 0014234 188.4403 171.6574 14.82726328561399"}}, "geometry": {"type": "Point", "coordinates": [153.92710301437984, 57.37202761622969]}}, {"type": "Feature", "properties": {"norad_id": 40878, "name": "YAOGAN-27", "group": "resource", "lat": 43.40006089311318, "lon": 164.3115953017641, "alt_km": 1201.3235423934148, "timestamp": "2025-12-10T21:43:21.743770+00:00", "meta": {"OBJECT_NAME": "YAOGAN-27", "OBJECT_ID": "2015-040A", "EPOCH": "2025-12-10T13:44:13.427232", "MEAN_MOTION": 13.16060358, "ECCENTRICITY": 0.00076653, "INCLINATION": 100.101, "RA_OF_ASC_NODE": 334.2898, "ARG_OF_PERICENTER": 292.3572, "MEAN_ANOMALY": 67.6729, "EPHEMERIS_TYPE": 0, "CLASSIFICATION_TYPE": "U", "NORAD_CAT_ID": 40878, "ELEMENT_SET_NO": 999, "REV_AT_EPOCH": 49285, "BSTAR": 0.00080080205, "MEAN_MOTION_DOT": 2.62e-06, "MEAN_MOTION_DDOT": 0}, "tle": {"line1": "1 40878U 15040A   25344.57237763  .00000262  00000+0  80080-3 0  9993", "line2": "2 40878 100.1010 334.2898 0007665 292.3572  67.6729 13.16060358492851"}}, "geometry": {"type": "Point", "coordinates": [164.3115953017641, 43.40006089311318]}}, {"type": "Feature", "properties": {"norad_id": 40894, "name": "GAOFEN-9 01", "group": "resource", "lat": -18.938616977499183, "lon": 26.58477753042095, "alt_km": 616.5228513682614, "timestamp": "2025-12-10T21:43:21.743780+00:00", "meta": {"OBJECT_NAME": "GAOFEN-9 01", "OBJECT_ID": "2015-047A", "EPOCH": "2025-12-10T15:19:42.733056", "MEAN_MOTION": 14.82414005, "ECCENTRICITY": 0.00285511, "INCLINATION": 97.6545, "RA_OF_ASC_NODE": 23.6849, "ARG_OF_PERICENTER": 40.939, "MEAN_ANOMALY": 319.3961, "EPHEMERIS_TYPE": 0, "CLASSIFICATION_TYPE": "U", "NORAD_CAT_ID": 40894, "ELEMENT_SET_NO": 999, "REV_AT_EPOCH": 55225, "BSTAR": 0.00023661972, "MEAN_MOTION_DOT": 1.858e-05, "MEAN_MOTION_DDOT": 0}, "tle": {"line1": "1 40894U 15047A   25344.63868904  .00001858  00000+0  23662-3 0  9997", "line2": "2 40894  97.6545  23.6849 0028551  40.9390 319.3961 14.82414005552251"}}, "geometry": {"type": "Point", "coordinates": [26.58477753042095, -18.938616977499183]}}, {"type": "Feature", "properties": {"norad_id": 41026, "name": "YAOGAN-28", "group": "resource", "lat": -36.21490511288688, "lon": -62.62280989031295, "alt_km": 498.46754262774175, "timestamp": "2025-12-10T21:43:21.743791+00:00", "meta": {"OBJECT_NAME": "YAOGAN-28", "OBJECT_ID": "2015-064A", "EPOCH": "2025-12-10T16:03:01.850688", "MEAN_MOTION": 15.24296423, "ECCENTRICITY": 0.00122818, "INCLINATION": 97.2806, "RA_OF_ASC_NODE": 122.5196, "ARG_OF_PERICENTER": 132.7551, "MEAN_ANOMALY": 227.4722, "EPHEMERIS_TYPE": 0, "CLASSIFICATION_TYPE": "U", "NORAD_CAT_ID": 41026, "ELEMENT_SET_NO": 999, "REV_AT_EPOCH": 56193, "BSTAR": 0.00057940809, "MEAN_MOTION_DOT": 0.00014132, "MEAN_MOTION_DDOT": 0}, "tle": {"line1": "1 41026U 15064A   25344.66877142  .00014132  00000+0  57941-3 0  9997", "line2": "2 41026  97.2806 122.5196 0012281 132.7551 227.4722 15.24296423561939"}}, "geometry": {"type": "Point", "coordinates": [-62.62280989031295, -36.21490511288688]}}, {"type": "Feature", "properties": {"norad_id": 41038, "name": "YAOGAN-29", "group": "resource", "lat": -45.51654186272192, "lon": 179.81481832642433, "alt_km": 627.1519622326032, "timestamp": "2025-12-10T21:43:21.743801+00:00", "meta": {"OBJECT_NAME": "YAOGAN-29", "OBJECT_ID": "2015-069A", "EPOCH": "2025-12-10T14:13:43.332960", "MEAN_MOTION": 14.82878291, "ECCENTRICITY": 3.907e-05, "INCLINATION": 98.0219, "RA_OF_ASC_NODE": 7.7573, "ARG_OF_PERICENTER": 347.1854, "MEAN_ANOMALY": 12.9349, "EPHEMERIS_TYPE": 0, "CLASSIFICATION_TYPE": "U", "NORAD_CAT_ID": 41038, "ELEMENT_SET_NO": 999, "REV_AT_EPOCH": 54267, "BSTAR": 6.2657178e-05, "MEAN_MOTION_DOT": 4.53e-06, "MEAN_MOTION_DDOT": 0}, "tle": {"line1": "1 41038U 15069A   25344.59286265  .00000453  00000+0  62657-4 0  9999", "line2": "2 41038  98.0219   7.7573 0000390 347.1854  12.9349 14.82878291542672"}}, "geometry": {"type": "Point", "coordinates": [179.81481832642433, -45.51654186272192]}}, {"type": "Feature", "properties": {"norad_id": 41167, "name": "KENT RIDGE 1", "group": "resource", "lat": -0.2845306644942131, "lon": 45.82433471221126, "alt_km": 496.8593147554584, "timestamp": "2025-12-10T21:43:21.743812+00:00", "meta": {"OBJECT_NAME": "KENT RIDGE 1", "OBJECT_ID": "2015-077B", "EPOCH": "2025-12-10T08:20:47.378112", "MEAN_MOTION": 15.21606581, "ECCENTRICITY": 0.00085393, "INCLINATION": 14.9787, "RA_OF_ASC_NODE": 228.8902, "ARG_OF_PERICENTER": 96.8813, "MEAN_ANOMALY": 263.248, "EPHEMERIS_TYPE": 0, "CLASSIFICATION_TYPE": "U", "NORAD_CAT_ID": 41167, "ELEMENT_SET_NO": 999, "REV_AT_EPOCH": 55227, "BSTAR": 0.00026180645, "MEAN_MOTION_DOT": 6.854e-05, "MEAN_MOTION_DDOT": 0}, "tle": {"line1": "1 41167U 15077B   25344.34777058  .00006854  00000+0  26181-3 0  9991", "line2": "2 41167  14.9787 228.8902 0008539  96.8813 263.2480 15.21606581552279"}}, "geometry": {"type": "Point", "coordinates": [45.82433471221126, -0.2845306644942131]}}, {"type": "Feature", "properties": {"norad_id": 41194, "name": "GAOFEN-4", "group": "resource", "lat": 0.15855911519813587, "lon": 151.38781712992528, "alt_km": 35774.41811700603, "timestamp": "2025-12-10T21:43:21.743824+00:00", "meta": {"OBJECT_NAME": "GAOFEN-4", "OBJECT_ID": "2015-083A", "EPOCH": "2025-12-10T12:30:49.584672", "MEAN_MOTION": 1.00270326, "ECCENTRICITY": 0.0003573, "INCLINATION": 0.1651, "RA_OF_ASC_NODE": 80.7667, "ARG_OF_PERICENTER": 106.7467, "MEAN_ANOMALY": 185.3918, "EPHEMERIS_TYPE": 0, "CLASSIFICATION_TYPE": "U", "NORAD_CAT_ID": 41194, "ELEMENT_SET_NO": 999, "REV_AT_EPOCH": 3663, "BSTAR": 0, "MEAN_MOTION_DOT": -3.31e-06, "MEAN_MOTION_DDOT": 0}, "tle": {"line1": "1 41194U 15083A   25344.52140723 -.00000331  00000+0  00000+0 0  9994", "line2": "2 41194   0.1651  80.7667 0003573 106.7467 185.3918  1.00270326 36631"}}, "geometry": {"type": "Point", "coordinates": [151.38781712992528, 0.15855911519813587]}}, {"type": "Feature", "properties": {"norad_id": 41240, "name": "JASON-3", "group": "resource", "lat": 65.94725080276021, "lon": -113.27420798099898, "alt_km": 1309.1575553402208, "timestamp": "2025-12-10T21:43:21.743836+00:00", "meta": {"OBJECT_NAME": "JASON-3", "OBJECT_ID": "2016-002A", "EPOCH": "2025-12-10T13:48:39.329280", "MEAN_MOTION": 12.87626414, "ECCENTRICITY": 0.00071563, "INCLINATION": 66.0389, "RA_OF_ASC_NODE": 162.3744, "ARG_OF_PERICENTER": 270.6446, "MEAN_ANOMALY": 89.3753, "EPHEMERIS_TYPE": 0, "CLASSIFICATION_TYPE": "U", "NORAD_CAT_ID": 41240, "ELEMENT_SET_NO": 999, "REV_AT_EPOCH": 46296, "BSTAR": 7.888299e-05, "MEAN_MOTION_DOT": -4.2e-07, "MEAN_MOTION_DDOT": 0}, "tle": {"line1": "1 41240U 16002A   25344.57545520 -.00000042  00000+0  78883-4 0  9995", "line2": "2 41240  66.0389 162.3744 0007156 270.6446  89.3753 12.87626414462963"}}, "geometry": {"type": "Point", "coordinates": [-113.27420798099898, 65.94725080276021]}}]}